[{"OBJECT_NAME":"STARLINK-3793","OBJECT_ID":"2022-045BB","EPOCH":"2026-03-09T12:30:55.941120","MEAN_MOTION":15.0884208,"ECCENTRICITY":0.00012382,"INCLINATION":53.2181,"RA_OF_ASC_NODE":179.9069,"ARG_OF_PERICENTER":93.1359,"MEAN_ANOMALY":266.9775,"EPHEMERIS_TYPE":0,"CLASSIFICATION_TYPE":"U","NORAD_CAT_ID":52380,"ELEMENT_SET_NO":999,"REV_AT_EPOCH":21603,"BSTAR":-5.1602336e-5,"MEAN_MOTION_DOT":-1.109e-5,"MEAN_MOTION_DDOT":0},{"OBJECT_NAME":"FENGYUN 1C DEB","OBJECT_ID":"1999-025AKL","EPOCH":"2026-03-09T14:47:46.011264","MEAN_MOTION":14.88806868,"ECCENTRICITY":0.0088849,"INCLINATION":98.9015,"RA_OF_ASC_NODE":300.2677,"ARG_OF_PERICENTER":245.5096,"MEAN_ANOMALY":169.9787,"EPHEMERIS_TYPE":0,"CLASSIFICATION_TYPE":"U","NORAD_CAT_ID":30546,"ELEMENT_SET_NO":999,"REV_AT_EPOCH":1749,"BSTAR":0.00087367,"MEAN_MOTION_DOT":8.737e-5,"MEAN_MOTION_DDOT":0}]
